ONEWEB-0319             
1 49105U 21075AG  25282.35623116  .00000078  00000+0  16685-3 0  9993
2 49105  87.9088  55.7576 0001866  83.1258 277.0086 13.17647754200573
ONEWEB-0323             
1 49106U 21075AH  25282.37290737 -.00000187  00000+0 -55483-3 0  9997
2 49106  87.8954  40.4684 0002038  79.5035 280.6323 13.12444211201652
ONEWEB-0329             
1 49107U 21075AJ  25282.44061178  .00000062  00000+0  12766-3 0  9998
2 49107  87.9085  55.7439 0001841  93.8438 266.2904 13.17650864200565
ONEWEB-0330             
1 49108U 21075AK  25282.44145076  .00000009  00000+0 -10149-4 0  9995
2 49108  87.9091  55.7486 0001935  95.5152 264.6200 13.17650264200601
ONEWEB-0292             
1 49186U 21083A   25282.54127650  .00000370  00000+0  97710-3 0  9997
2 49186  87.9049  10.0697 0001780  95.2855 264.8477 13.13471083198029
ONEWEB-0303             
1 49187U 21083B   25282.53218976  .00000115  00000+0  25911-3 0  9990
2 49187  87.9230  25.2301 0001788  93.8069 266.3268 13.18687138196940
ONEWEB-0306             
1 49188U 21083C   25282.52229333  .00000138  00000+0  31624-3 0  9992
2 49188  87.9232  25.2176 0001856 106.6801 253.4535 13.18687782196989
ONEWEB-0307             
1 49189U 21083D   25282.53533303 -.00000220  00000+0 -63859-3 0  9998
2 49189  87.9035  10.0661 0001796 101.4790 258.6541 13.13472789198020
